[{"OBJECT_NAME":"UNISAT-7","OBJECT_ID":"2021-022P","EPOCH":"2026-03-09T16:28:31.560096","MEAN_MOTION":15.37617151,"ECCENTRICITY":0.00117035,"INCLINATION":97.3969,"RA_OF_ASC_NODE":332.7353,"ARG_OF_PERICENTER":74.8463,"MEAN_ANOMALY":285.4075,"EPHEMERIS_TYPE":0,"CLASSIFICATION_TYPE":"U","NORAD_CAT_ID":47945,"ELEMENT_SET_NO":999,"REV_AT_EPOCH":27455,"BSTAR":0.000470835,"MEAN_MOTION_DOT":0.00017358,"MEAN_MOTION_DDOT":0},{"OBJECT_NAME":"NUSAT-26 (M SOMERVILLE)","OBJECT_ID":"2022-033AD","EPOCH":"2026-03-09T22:05:59.942688","MEAN_MOTION":15.38484194,"ECCENTRICITY":0.00052487,"INCLINATION":97.2405,"RA_OF_ASC_NODE":149.0176,"ARG_OF_PERICENTER":233.9732,"MEAN_ANOMALY":126.1028,"EPHEMERIS_TYPE":0,"CLASSIFICATION_TYPE":"U","NORAD_CAT_ID":52184,"ELEMENT_SET_NO":999,"REV_AT_EPOCH":8942,"BSTAR":0.00033456713,"MEAN_MOTION_DOT":0.00012634,"MEAN_MOTION_DDOT":0}]
